{
  "norad_id": 68849,
  "name": "STARLINK-37492",
  "history": [
    {
      "epoch": "2026-05-02T10:00:03.000096Z",
      "apogee_km": 274.98088751600244,
      "perigee_km": 273.18744868908107,
      "latitude_deg": -46.617554592603874,
      "longitude_deg": -62.00100717835832,
      "height_km": 292.8693162639583,
      "semi_major_axis_km": 6652.221168102541,
      "eccentricity": 0.0001348,
      "inclination_deg": 97.2822,
      "raan_deg": 136.0733,
      "arg_perigee_deg": 91.0563,
      "mean_anomaly_deg": 135.7652,
      "mean_motion_rev_day": 16.00120695
    }
  ]
}