{"fetched_at":"2026-05-03T06:27:58Z","count":17151,"tles":[{"name":"STARLINK-37492","line1":"1 68849U 26094L   26122.41670139 -.01708434  88602-3 -33779-2 0  9997","line2":"2 68849  97.2822 136.0733 0001348  91.0563 135.7652 16.00120695  2001","category":"Starlink"}]}